{
  "type": "FeatureCollection",
  "features": [
    {
      "type": "Feature",
      "properties": {
        "norad_id": 38091,
        "name": "BEIDOU-2 G5 (C05)",
        "group": "gnss",
        "lat": -3.0414888010643946,
        "lon": -34.722617374446855,
        "alt_km": 35736.05581987563,
        "timestamp": "2025-12-24T11:33:00.257420+00:00",
        "meta_object_name": "BEIDOU-2 G5 (C05)",
        "meta_object_id": "2012-008A",
        "meta_epoch": "2025-12-24T02:18:38.733696",
        "meta_mean_motion": 1.00269743,
        "meta_eccentricity": 0.0013065,
        "meta_inclination": 3.1357,
        "meta_ra_of_asc_node": 70.6677,
        "meta_arg_of_pericenter": 232.1361,
        "meta_mean_anomaly": 243.4747,
        "meta_ephemeris_type": 0,
        "meta_classification_type": "U",
        "meta_norad_cat_id": 38091,
        "meta_element_set_no": 999,
        "meta_rev_at_epoch": 5061,
        "meta_bstar": 0,
        "meta_mean_motion_dot": 7.7e-07,
        "meta_mean_motion_ddot": 0,
        "tle_line1": "1 38091U 12008A   25358.09628164  .00000077  00000+0  00000+0 0  9993",
        "tle_line2": "2 38091   3.1357  70.6677 0013065 232.1361 243.4747  1.00269743 50613"
      },
      "geometry": {
        "type": "Point",
        "coordinates": [
          -34.722617374446855,
          -3.0414888010643946
        ]
      }
    },
    {
      "type": "Feature",
      "properties": {
        "norad_id": 38250,
        "name": "BEIDOU-2 M3 (C11)",
        "group": "gnss",
        "lat": -38.08818701804378,
        "lon": 162.76683786233272,
        "alt_km": 21487.10632221113,
        "timestamp": "2025-12-24T11:33:00.257432+00:00",
        "meta_object_name": "BEIDOU-2 M3 (C11)",
        "meta_object_id": "2012-018A",
        "meta_epoch": "2025-12-23T14:28:50.284992",
        "meta_mean_motion": 1.86230163,
        "meta_eccentricity": 0.00241022,
        "meta_inclination": 55.911,
        "meta_ra_of_asc_node": 310.7927,
        "meta_arg_of_pericenter": 275.3746,
        "meta_mean_anomaly": 84.3517,
        "meta_ephemeris_type": 0,
        "meta_classification_type": "U",
        "meta_norad_cat_id": 38250,
        "meta_element_set_no": 999,
        "meta_rev_at_epoch": 9267,
        "meta_bstar": 0,
        "meta_mean_motion_dot": -5.4e-07,
        "meta_mean_motion_ddot": 0,
        "tle_line1": "1 38250U 12018A   25357.60335978 -.00000054  00000+0  00000+0 0  9991",
        "tle_line2": "2 38250  55.9110 310.7927 0024102 275.3746  84.3517  1.86230163 92675"
      },
      "geometry": {
        "type": "Point",
        "coordinates": [
          162.76683786233272,
          -38.08818701804378
        ]
      }
    },
    {
      "type": "Feature",
      "properties": {
        "norad_id": 38251,
        "name": "BEIDOU-2 M4 (C12)",
        "group": "gnss",
        "lat": -55.62112616520933,
        "lon": -133.01061301177657,
        "alt_km": 21491.694098061704,
        "timestamp": "2025-12-24T11:33:00.257444+00:00",
        "meta_object_name": "BEIDOU-2 M4 (C12)",
        "meta_object_id": "2012-018B",
        "meta_epoch": "2025-12-21T22:11:20.549760",
        "meta_mean_motion": 1.86229896,
        "meta_eccentricity": 0.00152556,
        "meta_inclination": 55.8135,
        "meta_ra_of_asc_node": 310.0771,
        "meta_arg_of_pericenter": 279.1681,
        "meta_mean_anomaly": 80.6551,
        "meta_ephemeris_type": 0,
        "meta_classification_type": "U",
        "meta_norad_cat_id": 38251,
        "meta_element_set_no": 999,
        "meta_rev_at_epoch": 9264,
        "meta_bstar": 0,
        "meta_mean_motion_dot": -6e-07,
        "meta_mean_motion_ddot": 0,
        "tle_line1": "1 38251U 12018B   25355.92454340 -.00000060  00000+0  00000+0 0  9997",
        "tle_line2": "2 38251  55.8135 310.0771 0015255 279.1681  80.6551  1.86229896 92646"
      },
      "geometry": {
        "type": "Point",
        "coordinates": [
          -133.01061301177657,
          -55.62112616520933
        ]
      }
    },
    {
      "type": "Feature",
      "properties": {
        "norad_id": 38652,
        "name": "SES-5 (EGNOS/PRN 136)",
        "group": "gnss",
        "lat": -0.04981090832475738,
        "lon": -88.51071599454032,
        "alt_km": 35778.00439162656,
        "timestamp": "2025-12-24T11:33:00.257456+00:00",
        "meta_object_name": "SES-5 (EGNOS/PRN 136)",
        "meta_object_id": "2012-036A",
        "meta_epoch": "2025-12-24T00:36:38.599200",
        "meta_mean_motion": 1.00271637,
        "meta_eccentricity": 0.0001913,
        "meta_inclination": 0.06,
        "meta_ra_of_asc_node": 303.7669,
        "meta_arg_of_pericenter": 325.6654,
        "meta_mean_anomaly": 197.5234,
        "meta_ephemeris_type": 0,
        "meta_classification_type": "U",
        "meta_norad_cat_id": 38652,
        "meta_element_set_no": 999,
        "meta_rev_at_epoch": 4270,
        "meta_bstar": 0,
        "meta_mean_motion_dot": 5.5e-07,
        "meta_mean_motion_ddot": 0,
        "tle_line1": "1 38652U 12036A   25358.02544675  .00000055  00000+0  00000+0 0  9990",
        "tle_line2": "2 38652   0.0600 303.7669 0001913 325.6654 197.5234  1.00271637 42702"
      },
      "geometry": {
        "type": "Point",
        "coordinates": [
          -88.51071599454032,
          -0.04981090832475738
        ]
      }
    },
    {
      "type": "Feature",
      "properties": {
        "norad_id": 38775,
        "name": "BEIDOU-2 M6 (C14)",
        "group": "gnss",
        "lat": 52.35746315101194,
        "lon": -170.76175273972072,
        "alt_km": 21540.139977365543,
        "timestamp": "2025-12-24T11:33:00.257468+00:00",
        "meta_object_name": "BEIDOU-2 M6 (C14)",
        "meta_object_id": "2012-050B",
        "meta_epoch": "2025-12-23T05:54:39.234816",
        "meta_mean_motion": 1.86230862,
        "meta_eccentricity": 0.00114449,
        "meta_inclination": 56.3871,
        "meta_ra_of_asc_node": 68.7189,
        "meta_arg_of_pericenter": 343.1863,
        "meta_mean_anomaly": 16.829,
        "meta_ephemeris_type": 0,
        "meta_classification_type": "U",
        "meta_norad_cat_id": 38775,
        "meta_element_set_no": 999,
        "meta_rev_at_epoch": 9003,
        "meta_bstar": 0,
        "meta_mean_motion_dot": -2.5e-07,
        "meta_mean_motion_ddot": 0,
        "tle_line1": "1 38775U 12050B   25357.24628744 -.00000025  00000+0  00000+0 0  9993",
        "tle_line2": "2 38775  56.3871  68.7189 0011444 343.1863  16.8290  1.86230862 90037"
      },
      "geometry": {
        "type": "Point",
        "coordinates": [
          -170.76175273972072,
          52.35746315101194
        ]
      }
    },
    {
      "type": "Feature",
      "properties": {
        "norad_id": 38779,
        "name": "GSAT-10 (GAGAN/PRN 128)",
        "group": "gnss",
        "lat": 0.05083778881515588,
        "lon": -10.486471882058225,
        "alt_km": 35792.660737160586,
        "timestamp": "2025-12-24T11:33:00.257480+00:00",
        "meta_object_name": "GSAT-10 (GAGAN/PRN 128)",
        "meta_object_id": "2012-051B",
        "meta_epoch": "2025-12-23T23:47:58.140096",
        "meta_mean_motion": 1.00271365,
        "meta_eccentricity": 0.0002249,
        "meta_inclination": 0.065,
        "meta_ra_of_asc_node": 262.6687,
        "meta_arg_of_pericenter": 219.7195,
        "meta_mean_anomaly": 50.4102,
        "meta_ephemeris_type": 0,
        "meta_classification_type": "U",
        "meta_norad_cat_id": 38779,
        "meta_element_set_no": 999,
        "meta_rev_at_epoch": 4834,
        "meta_bstar": 0,
        "meta_mean_motion_dot": -1.44e-06,
        "meta_mean_motion_ddot": 0,
        "tle_line1": "1 38779U 12051B   25357.99164514 -.00000144  00000+0  00000+0 0  9992",
        "tle_line2": "2 38779   0.0650 262.6687 0002249 219.7195  50.4102  1.00271365 48341"
      },
      "geometry": {
        "type": "Point",
        "coordinates": [
          -10.486471882058225,
          0.05083778881515588
        ]
      }
    },
    {
      "type": "Feature",
      "properties": {
        "norad_id": 38833,
        "name": "GPS BIIF-3  (PRN 24)",
        "group": "gnss",
        "lat": 43.482067671796486,
        "lon": -73.72705639499621,
        "alt_km": 19916.47031281699,
        "timestamp": "2025-12-24T11:33:00.257491+00:00",
        "meta_object_name": "GPS BIIF-3  (PRN 24)",
        "meta_object_id": "2012-053A",
        "meta_epoch": "2025-12-23T07:42:27.651168",
        "meta_mean_motion": 2.00565064,
        "meta_eccentricity": 0.01760539,
        "meta_inclination": 53.5596,
        "meta_ra_of_asc_node": 150.8054,
        "meta_arg_of_pericenter": 64.149,
        "meta_mean_anomaly": 297.6308,
        "meta_ephemeris_type": 0,
        "meta_classification_type": "U",
        "meta_norad_cat_id": 38833,
        "meta_element_set_no": 999,
        "meta_rev_at_epoch": 9591,
        "meta_bstar": 0,
        "meta_mean_motion_dot": 7.4e-07,
        "meta_mean_motion_ddot": 0,
        "tle_line1": "1 38833U 12053A   25357.32115337  .00000074  00000+0  00000+0 0  9992",
        "tle_line2": "2 38833  53.5596 150.8054 0176053  64.1490 297.6308  2.00565064 95916"
      },
      "geometry": {
        "type": "Point",
        "coordinates": [
          -73.72705639499621,
          43.482067671796486
        ]
      }
    }
  ]
}